id,category,satellite_name,tle_line1,tle_line2,inclination,eccentricity,period,perigee,apogee,epoch,raan,arg_perigee,mean_anomaly,mean_motion,semi_major_axis,velocity,orbit_type,satellite_age,bstar,rev_num,norad_number,ephemeris_type,intl_designator
4836,active,STARLINK-4575,1 53565U 22101AQ  25017.57390910  .00001078  00000+0  85830-4 0  9992,2 53565  53.2169 122.2924 0001397  93.0827 267.0325 15.08841248134287,53.2169,0.0001397,95.43747573899834,538.9101469725701,540.8430016874381,2025-01-17 13:46:25.74624,122.2924,93.0827,267.0325,15.08841248,6917.876574330004,7.590711460066875,LEO,2,8.583e-05,13428,53565,0,22101AQ
4841,active,STARLINK-4550,1 53570U 22101AV  25017.55084582  .00000344  00000+0  39695-4 0  9994,2 53570  53.2176 122.1498 0001456  92.1343 267.9816 15.08840394134314,53.2176,0.0001456,95.43752975637793,538.8719414547013,540.8864278732744,2025-01-17 13:13:13.078848,122.14980000000001,92.1343,267.9816,15.08840394,6917.879184663988,7.59071002795933,LEO,2,3.9695000000000005e-05,13431,53570,0,22101AV
4844,active,STARLINK-4547,1 53573U 22101AY  25017.60971882 -.00000077  00000+0  13252-4 0  9996,2 53573  53.2174 121.8071 0001494  82.1627 277.9534 15.08838320133632,53.2174,0.0001494,95.43766094169717,538.8519919594792,540.9190561540663,2025-01-17 14:37:59.706048,121.80710000000002,82.1627,277.9534,15.0883832,6917.885524056773,7.590706549981612,LEO,2,1.3252000000000001e-05,13363,53573,0,22101AY
4849,active,STARLINK-4556,1 53578U 22101BD  25017.59129087  .00000290  00000+0  36314-4 0  9991,2 53578  53.2185 121.6904 0001324  89.5733 270.5411 15.08842529133632,53.2185,0.0001324,95.43739471304363,538.9567324936133,540.7885851736728,2025-01-17 14:11:27.531168,121.6904,89.5733,270.5411,15.08842529,6917.872658833643,7.590713608227181,LEO,2,3.6314000000000005e-05,13363,53578,0,22101BD
4853,active,STARLINK-4691,1 53588U 22104A   25017.51868799  .00001593  00000+0  11813-3 0  9990,2 53588  53.2205 312.6350 0001487 103.9326 256.1831 15.08840971133266,53.2205,0.0001487,95.43749325985131,538.8487326346449,540.9061093796527,2025-01-17 12:26:54.642336,312.635,103.9326,256.1831,15.08840971,6917.877421007149,7.5907109955543,LEO,2,0.00011813,13326,53588,0,22104A
4857,active,STARLINK-4672,1 53592U 22104E   25017.50858756  .00005355  00000+0  35417-3 0  9992,2 53592  53.2184 312.5691 0001379  89.1290 270.9860 15.08851432133113,53.21840000000001,0.0001379,95.43683158329667,538.8914752471483,540.7994170211923,2025-01-17 12:12:21.965184,312.5691,89.129,270.986,15.08851432,6917.845446134171,7.590728537991561,LEO,2,0.00035417,13311,53592,0,22104E
4861,active,STARLINK-4668,1 53596U 22104J   25017.03676708  .00072630  00000+0  16956-2 0  9995,2 53596  53.2090 282.3719 0005471 111.2604 248.8987 15.41560951133171,53.20900000000001,0.0005471,93.41181087039614,437.90779379074775,445.36984258560824,2025-01-17 00:52:56.675712,282.3719,111.2604,248.8987,15.41560951,6819.638818188178,7.645188551542359,LEO,2,0.0016956,13317,53596,0,22104J
4864,active,STARLINK-4675,1 53601U 22104P   25017.54807533  .00001376  00000+0  10448-3 0  9990,2 53601  53.2189 312.1073 0001415 100.9869 259.1283 15.08846338132794,53.2189,0.0001415,95.43715378656405,538.8821389676659,540.8398936352796,2025-01-17 13:09:13.708512,312.1073,100.9869,259.1283,15.08846338,6917.861016301473,7.5907199956849505,LEO,2,0.00010448,13279,53601,0,22104P
4869,active,STARLINK-4590,1 53606U 22104U   25017.50486928  .00001907  00000+0  13789-3 0  9993,2 53606  53.2193 302.5603 0001479  83.9422 276.1739 15.08843887132804,53.2193,0.0001479,95.4373088168266,538.8453552332976,540.8916607379597,2025-01-17 12:07:00.705792,302.5603,83.9422,276.1739,15.08843887,6917.868507985629,7.590715885510549,LEO,2,0.00013789000000000002,13280,53606,0,22104U
4877,active,STARLINK-4605,1 53616U 22104AE  25017.16720339  .00003983  00000+0  26816-3 0  9994,2 53616  53.2181 293.8383 0001653 104.3916 255.7260 15.08842247133003,53.21810000000001,0.0001653,95.43741255012725,538.7299962995667,541.01704528554,2025-01-17 04:00:46.372896,293.8383,104.3916,255.726,15.08842247,6917.873520792554,7.590713135330169,LEO,2,0.00026816000000000003,13300,53616,0,22104AE
4882,active,STARLINK-4568,1 53622U 22104AL  25017.05952484 -.00003995  00000+0 -23306-3 0  9993,2 53622  53.2176 304.0508 0001344 114.9076 245.2056 15.08842609132850,53.2176,0.0001344,95.43738965287929,538.9426522538579,540.802176358824,2025-01-17 01:25:42.946176,304.0508,114.9076,245.2056,15.08842609,6917.872414306341,7.590713742382351,LEO,2,-0.00023306,13285,53622,0,22104AL
4885,active,STARLINK-4554,1 53626U 22104AQ  25017.19569660  .00003523  00000+0  23939-3 0  9999,2 53626  53.2185 303.4769 0001557 119.7443 240.3704 15.08833478132886,53.2185,0.0001557,95.43796721085214,538.8232071002712,540.9774412612214,2025-01-17 04:41:48.18624,303.4769,119.74429999999998,240.3704,15.08833478,6917.900324180746,7.590698430216018,LEO,2,0.00023939,13288,53626,0,22104AQ
4890,active,STARLINK-4599,1 53631U 22104AV  25017.51584646  .00000109  00000+0  24940-4 0  9993,2 53631  53.2200 301.9236 0001897  76.1512 283.9691 15.08835891132937,53.22,0.0001897,95.43781458204987,538.5806242694334,541.2052728541175,2025-01-17 12:22:49.134144,301.9236,76.1512,283.9691,15.08835891,6917.8929485617755,7.59070247668543,LEO,2,2.4940000000000002e-05,13293,53631,0,22104AV
4894,active,STARLINK-4587,1 53635U 22104AZ  25017.15616923  .00000876  00000+0  73112-4 0  9997,2 53635  53.2195 293.9543 0001821 105.6137 254.5057 15.08845356133346,53.2195,0.0001821,95.43721589981153,538.6042748255795,541.1237609008849,2025-01-17 03:44:53.021472,293.9543,105.6137,254.5057,15.08845356,6917.864017863232,7.590718348932624,LEO,2,7.3112e-05,13334,53635,0,22104AZ
4898,active,STARLINK-4422,1 53639U 22104BD  25017.14143346  .00002562  00000+0  17901-3 0  9991,2 53639  53.2183 293.8666 0001464  94.6428 265.4731 15.08838159133179,53.2183,0.0001464,95.4376711253364,538.8732376575545,540.8987946830885,2025-01-17 03:23:39.850944,293.8666,94.6428,265.4731,15.08838159,6917.886016170321,7.590706279993816,LEO,2,0.00017901,13317,53639,0,22104BD
4902,active,STARLINK-4386,1 53649U 22105B   25017.59902749  .00000585  00000+0  50177-4 0  9998,2 53649  97.6523 261.3723 0004177  50.6421 309.5172 15.01257807130807,97.6523,0.0004177,95.91956779745826,560.2542871747373,566.0529268980563,2025-01-17 14:22:35.975136,261.3723,50.6421,309.5172,15.01257807,6941.153607036396,7.577973115054595,LEO,2,5.0177000000000004e-05,13080,53649,0,22105B
4905,active,STARLINK-4374,1 53652U 22105E   25017.59346866  .00001916  00000+0  15372-3 0  9990,2 53652  97.6529 261.3594 0002016  39.6927 320.4445 15.01259345130805,97.6529,0.0002016,95.91946953042947,561.749530740125,564.548201963039,2025-01-17 14:14:35.692224,261.3594,39.6927,320.4445,15.01259345,6941.148866351582,7.577975702866543,LEO,2,0.00015372,13080,53652,0,22105E
4910,active,STARLINK-4469,1 53657U 22105K   25017.58976412  .00000332  00000+0  30454-4 0  9990,2 53657  97.6542 261.3531 0001733  71.6213 288.5199 15.01258866130802,97.6542,0.0001733,95.91950013502868,561.9474414514589,564.3532441602756,2025-01-17 14:09:15.619968,261.3531,71.6213,288.5199,15.01258866,6941.150342805868,7.577974896909695,LEO,2,3.0454e-05,13080,53657,0,22105K
4914,active,STARLINK-4472,1 53661U 22105P   25017.58074951 -.00000287  00000+0 -17741-4 0  9997,2 53661  97.6544 261.3470 0001250  94.5622 265.5745 15.01258902130806,97.6544,0.000125,95.9194978348911,562.2825880616101,564.0178756195701,2025-01-17 13:56:16.757664,261.347,94.5622,265.5745,15.01258902,6941.15023184059,7.57797495748266,LEO,2,-1.7741000000000002e-05,13080,53661,0,22105P
4918,active,STARLINK-4334,1 53665U 22105T   25017.57309852 -.00000187  00000+0 -99408-5 0  9991,2 53665  97.6549 261.3434 0001171 101.8515 258.2840 15.01258791130801,97.65490000000001,0.0001171,95.9195049269823,562.3377652513273,563.9633827157531,2025-01-17 13:45:15.712128,261.3434,101.8515,258.284,15.01258791,6941.15057398354,7.577974770716019,LEO,2,-9.9408e-06,13080,53665,0,22105T
4923,active,STARLINK-4459,1 53670U 22105Y   25017.63234968  .00002832  00000+0  22489-3 0  9999,2 53670  97.6552 261.3944 0001520  80.8990 279.2406 15.01273535130813,97.6552,0.000152,95.9185629019964,562.0500799259562,564.1601758848392,2025-01-17 15:10:35.012352,261.3944,80.89900000000002,279.2406,15.01273535,6941.105127905398,7.577999578629423,LEO,2,0.00022489000000000002,13081,53670,0,22105Y
4832,active,STARLINK-4563,1 53561U 22101AL  25017.59409240  .00001160  00000+0  90951-4 0  9999,2 53561  53.2161 132.0432 0001205  97.1482 262.9647 15.08842291133490,53.2161,0.0001205,95.43740976703575,539.0397825594437,540.7069900455417,2025-01-17 14:15:29.58336,132.0432,97.1482,262.9647,15.08842291,6917.873386302493,7.590713209115522,LEO,2,9.0951e-05,13349,53561,0,22101AL
4935,active,STARLINK-4438,1 53682U 22105AL  25017.60635307  .00009161  00000+0  71804-3 0  9998,2 53682  97.6539 261.4033 0004052  57.6825 302.4791 15.01193757130816,97.6539,0.0004052,95.92366030602936,560.5384045712835,566.1636754541105,2025-01-17 14:33:08.905248,261.4033,57.6825,302.4791,15.01193757,6941.351040012697,7.577865344073365,LEO,2,0.00071804,13081,53682,0,22105AL
4939,active,STARLINK-4467,1 53686U 22105AQ  25017.58605654  .00000411  00000+0  36554-4 0  9994,2 53686  97.6544 261.4086 0001574  91.1035 269.0369 15.01258629130815,97.6544,0.0001574,95.91951527760378,562.0585361484391,564.2436105063225,2025-01-17 14:03:55.285056,261.4086,91.10350000000001,269.0369,15.01258629,6941.151073327381,7.577974498137664,LEO,2,3.6554e-05,13081,53686,0,22105AQ
4943,active,STARLINK-4570,1 53690U 22105AU  25017.63050402 -.00000177  00000+0 -92055-5 0  9990,2 53690  97.6557 261.3380 0001728  90.9439 269.1983 15.01271601130814,97.6557,0.0001728,95.91868646824553,561.911665119871,564.3105131122693,2025-01-17 15:07:55.547328,261.338,90.9439,269.1983,15.01271601,6941.11108911607,7.577996324535008,LEO,2,-9.2055e-06,13081,53690,0,22105AU
